[{"OBJECT_NAME":"STARLINK-3573","OBJECT_ID":"2022-017AC","EPOCH":"2026-03-09T02:20:12.730848","MEAN_MOTION":15.08836578,"ECCENTRICITY":0.0001122,"INCLINATION":53.219,"RA_OF_ASC_NODE":351.7778,"ARG_OF_PERICENTER":84.1826,"MEAN_ANOMALY":275.9294,"EPHEMERIS_TYPE":0,"CLASSIFICATION_TYPE":"U","NORAD_CAT_ID":51794,"ELEMENT_SET_NO":999,"REV_AT_EPOCH":22383,"BSTAR":2.0741975e-5,"MEAN_MOTION_DOT":4.2e-7,"MEAN_MOTION_DDOT":0},{"OBJECT_NAME":"CZ-4B DEB","OBJECT_ID":"2004-035J","EPOCH":"2026-03-07T20:16:16.859712","MEAN_MOTION":15.09572175,"ECCENTRICITY":0.00105031,"INCLINATION":97.5432,"RA_OF_ASC_NODE":82.067,"ARG_OF_PERICENTER":356.2804,"MEAN_ANOMALY":3.8346,"EPHEMERIS_TYPE":0,"CLASSIFICATION_TYPE":"U","NORAD_CAT_ID":29042,"ELEMENT_SET_NO":999,"REV_AT_EPOCH":69625,"BSTAR":0.00031812935,"MEAN_MOTION_DOT":5.052e-5,"MEAN_MOTION_DDOT":0}]
